{
"type": "FeatureCollection",
"name": "data2",
"crs": { "type": "name", "properties": { "name": "urn:ogc:def:crs:OGC:1.3:CRS84" } },
"features": [
{ "type": "Feature", "properties": { "fid": 3, "id": 3, "Sector": "Three", "Provider": "Demo" }, "geometry": { "type": "MultiPolygon", "coordinates": [ [ [ [ 82.98923284070348, 25.263917476941451 ], [ 82.99381570604173, 25.264129927652498 ], [ 82.993724655736997, 25.25927391140004 ], [ 82.989354241109794, 25.259182861095308 ], [ 82.989202490601897, 25.263856776738297 ], [ 82.98923284070348, 25.263917476941451 ] ] ] ] } },
{ "type": "Feature", "properties": { "fid": 1, "id": 1, "Sector": "First", "Provider": "Jeet" }, "geometry": { "type": "MultiPolygon", "coordinates": [ [ [ [ 82.984483797958575, 25.267654008941903 ], [ 82.987768962954078, 25.267691769459091 ], [ 82.987778403083368, 25.265199575324576 ], [ 82.984436597312083, 25.265199575324576 ], [ 82.984483797958575, 25.267654008941903 ] ] ] ] } },
{ "type": "Feature", "properties": { "fid": 2, "id": 2, "Sector": "Second", "Provider": "Aman" }, "geometry": { "type": "MultiPolygon", "coordinates": [ [ [ [ 82.987774432482681, 25.267715936771502 ], [ 82.990905652998663, 25.267749247628057 ], [ 82.990883445760957, 25.265184311673483 ], [ 82.987763328863835, 25.265184311673483 ], [ 82.987774432482681, 25.267715936771502 ] ] ] ] } }
]
}
